{"type": "FeatureCollection", "features": [ {"type": "Feature", "properties": {"norad_id": 39546, "name": "COSMOS 2251 DEB", "group": "cosmos-2251-debris", "lat": 38.302699038047166, "lon": -72.50038167724394, "alt_km": 611.2673027183437, "timestamp": "2025-12-20T18:51:32.111357+00:00", "meta": {"OBJECT_NAME": "COSMOS 2251 DEB", "OBJECT_ID": "1993-036BUC", "EPOCH": "2025-12-20T15:00:47.216736", "MEAN_MOTION": 14.92249819, "ECCENTRICITY": 0.00443007, "INCLINATION": 73.9978, "RA_OF_ASC_NODE": 120.9229, "ARG_OF_PERICENTER": 279.9237, "MEAN_ANOMALY": 79.6947, "EPHEMERIS_TYPE": 0, "CLASSIFICATION_TYPE": "U", "NORAD_CAT_ID": 39546, "ELEMENT_SET_NO": 999, "REV_AT_EPOCH": 64554, "BSTAR": 0.00091335845, "MEAN_MOTION_DOT": 9.469e-05, "MEAN_MOTION_DDOT": 0}, "tle": {"line1": "1 39546U 93036BUC 25354.62554649  .00009469  00000+0  91336-3 0  9990", "line2": "2 39546  73.9978 120.9229 0044300 279.9237  79.6947 14.92249819645542"}}, "geometry": {"type": "Point", "coordinates": [-72.50038167724394, 38.302699038047166]}}, {"type": "Feature", "properties": {"norad_id": 39547, "name": "COSMOS 2251 DEB", "group": "cosmos-2251-debris", "lat": 71.05074479312887, "lon": 125.2147917029545, "alt_km": 548.6605534681903, "timestamp": "2025-12-20T18:51:32.111367+00:00", "meta": {"OBJECT_NAME": "COSMOS 2251 DEB", "OBJECT_ID": "1993-036BUD", "EPOCH": "2025-12-19T07:21:14.962752", "MEAN_MOTION": 15.03732917, "ECCENTRICITY": 0.0005758, "INCLINATION": 74.0009, "RA_OF_ASC_NODE": 4.9325, "ARG_OF_PERICENTER": 3.3316, "MEAN_ANOMALY": 11.6145, "EPHEMERIS_TYPE": 0, "CLASSIFICATION_TYPE": "U", "NORAD_CAT_ID": 39547, "ELEMENT_SET_NO": 999, "REV_AT_EPOCH": 64124, "BSTAR": 0.0019087, "MEAN_MOTION_DOT": 0.0002626, "MEAN_MOTION_DDOT": 0}, "tle": {"line1": "1 39547U 93036BUD 25353.30642318  .00026260  00000+0  19087-2 0  9996", "line2": "2 39547  74.0009   4.9325 0005758   3.3316  11.6145 15.03732917641247"}}, "geometry": {"type": "Point", "coordinates": [125.2147917029545, 71.05074479312887]}}, {"type": "Feature", "properties": {"norad_id": 39553, "name": "COSMOS 2251 DEB", "group": "cosmos-2251-debris", "lat": 29.08781882357902, "lon": 126.91606462728997, "alt_km": 815.7997912753917, "timestamp": "2025-12-20T18:51:32.111377+00:00", "meta": {"OBJECT_NAME": "COSMOS 2251 DEB", "OBJECT_ID": "1993-036BUK", "EPOCH": "2025-12-19T04:26:08.787552", "MEAN_MOTION": 13.99893274, "ECCENTRICITY": 0.02023146, "INCLINATION": 74.0301, "RA_OF_ASC_NODE": 318.8543, "ARG_OF_PERICENTER": 93.0274, "MEAN_ANOMALY": 269.4029, "EPHEMERIS_TYPE": 0, "CLASSIFICATION_TYPE": "U", "NORAD_CAT_ID": 39553, "ELEMENT_SET_NO": 999, "REV_AT_EPOCH": 75707, "BSTAR": 0.00037697212, "MEAN_MOTION_DOT": 6.38e-06, "MEAN_MOTION_DDOT": 0}, "tle": {"line1": "1 39553U 93036BUK 25353.18482393  .00000638  00000+0  37697-3 0  9993", "line2": "2 39553  74.0301 318.8543 0202314  93.0274 269.4029 13.99893274757074"}}, "geometry": {"type": "Point", "coordinates": [126.91606462728997, 29.08781882357902]}}, {"type": "Feature", "properties": {"norad_id": 39554, "name": "COSMOS 2251 DEB", "group": "cosmos-2251-debris", "lat": 24.0807599055401, "lon": 60.60559804270334, "alt_km": 530.4843319418624, "timestamp": "2025-12-20T18:51:32.111387+00:00", "meta": {"OBJECT_NAME": "COSMOS 2251 DEB", "OBJECT_ID": "1993-036BUL", "EPOCH": "2025-12-10T06:12:03.924864", "MEAN_MOTION": 15.10130993, "ECCENTRICITY": 0.0002993, "INCLINATION": 74.0187, "RA_OF_ASC_NODE": 269.7383, "ARG_OF_PERICENTER": 74.7531, "MEAN_ANOMALY": 81.5927, "EPHEMERIS_TYPE": 0, "CLASSIFICATION_TYPE": "U", "NORAD_CAT_ID": 39554, "ELEMENT_SET_NO": 999, "REV_AT_EPOCH": 64347, "BSTAR": 0.0046896, "MEAN_MOTION_DOT": 0.000773, "MEAN_MOTION_DDOT": 0}, "tle": {"line1": "1 39554U 93036BUL 25344.25837876  .00077300  00000+0  46896-2 0  9992", "line2": "2 39554  74.0187 269.7383 0002993  74.7531  81.5927 15.10130993643471"}}, "geometry": {"type": "Point", "coordinates": [60.60559804270334, 24.0807599055401]}}, {"type": "Feature", "properties": {"norad_id": 39583, "name": "COSMOS 2251 DEB", "group": "cosmos-2251-debris", "lat": 9.120696074312024, "lon": 49.10568952419203, "alt_km": 788.81822969924, "timestamp": "2025-12-20T18:51:32.111398+00:00", "meta": {"OBJECT_NAME": "COSMOS 2251 DEB", "OBJECT_ID": "1993-036BUN", "EPOCH": "2025-12-20T09:51:33.318720", "MEAN_MOTION": 14.6056655, "ECCENTRICITY": 0.01369587, "INCLINATION": 73.9317, "RA_OF_ASC_NODE": 232.4786, "ARG_OF_PERICENTER": 344.3016, "MEAN_ANOMALY": 15.392, "EPHEMERIS_TYPE": 0, "CLASSIFICATION_TYPE": "U", "NORAD_CAT_ID": 39583, "ELEMENT_SET_NO": 999, "REV_AT_EPOCH": 61891, "BSTAR": 0.00096933589, "MEAN_MOTION_DOT": 5.347e-05, "MEAN_MOTION_DDOT": 0}, "tle": {"line1": "1 39583U 93036BUN 25354.41080230  .00005347  00000+0  96934-3 0  9998", "line2": "2 39583  73.9317 232.4786 0136958 344.3016  15.3920 14.60566550618918"}}, "geometry": {"type": "Point", "coordinates": [49.10568952419203, 9.120696074312024]}}, {"type": "Feature", "properties": {"norad_id": 39585, "name": "COSMOS 2251 DEB", "group": "cosmos-2251-debris", "lat": -54.86280567581, "lon": -97.98766647736753, "alt_km": 714.1897734246268, "timestamp": "2025-12-20T18:51:32.111408+00:00", "meta": {"OBJECT_NAME": "COSMOS 2251 DEB", "OBJECT_ID": "1993-036BUQ", "EPOCH": "2025-12-17T13:45:47.587680", "MEAN_MOTION": 14.58681164, "ECCENTRICITY": 0.00655713, "INCLINATION": 74.0421, "RA_OF_ASC_NODE": 292.1145, "ARG_OF_PERICENTER": 51.6529, "MEAN_ANOMALY": 309.0503, "EPHEMERIS_TYPE": 0, "CLASSIFICATION_TYPE": "U", "NORAD_CAT_ID": 39585, "ELEMENT_SET_NO": 999, "REV_AT_EPOCH": 62591, "BSTAR": 0.00024435975, "MEAN_MOTION_DOT": 1.143e-05, "MEAN_MOTION_DDOT": 0}, "tle": {"line1": "1 39585U 93036BUQ 25351.57346745  .00001143  00000+0  24436-3 0  9998", "line2": "2 39585  74.0421 292.1145 0065571  51.6529 309.0503 14.58681164625913"}}, "geometry": {"type": "Point", "coordinates": [-97.98766647736753, -54.86280567581]}}, {"type": "Feature", "properties": {"norad_id": 39586, "name": "COSMOS 2251 DEB", "group": "cosmos-2251-debris", "lat": 73.2292323434088, "lon": -38.29464837123748, "alt_km": 836.2358829091345, "timestamp": "2025-12-20T18:51:32.111418+00:00", "meta": {"OBJECT_NAME": "COSMOS 2251 DEB", "OBJECT_ID": "1993-036BUR", "EPOCH": "2025-12-15T23:50:08.053728", "MEAN_MOTION": 14.21232237, "ECCENTRICITY": 0.01008868, "INCLINATION": 74.0082, "RA_OF_ASC_NODE": 222.4068, "ARG_OF_PERICENTER": 356.2296, "MEAN_ANOMALY": 66.1426, "EPHEMERIS_TYPE": 0, "CLASSIFICATION_TYPE": "U", "NORAD_CAT_ID": 39586, "ELEMENT_SET_NO": 999, "REV_AT_EPOCH": 61018, "BSTAR": 0.00043436803, "MEAN_MOTION_DOT": 9.7e-06, "MEAN_MOTION_DDOT": 0}, "tle": {"line1": "1 39586U 93036BUR 25349.99314877  .00000970  00000+0  43437-3 0  9992", "line2": "2 39586  74.0082 222.4068 0100886 356.2296  66.1426 14.21232237610182"}}, "geometry": {"type": "Point", "coordinates": [-38.29464837123748, 73.2292323434088]}}, {"type": "Feature", "properties": {"norad_id": 39591, "name": "COSMOS 2251 DEB", "group": "cosmos-2251-debris", "lat": -36.41443434026175, "lon": 64.04284691924522, "alt_km": 770.4760307208971, "timestamp": "2025-12-20T18:51:32.111427+00:00", "meta": {"OBJECT_NAME": "COSMOS 2251 DEB", "OBJECT_ID": "1993-036BUW", "EPOCH": "2025-12-19T09:05:27.177792", "MEAN_MOTION": 14.41824759, "ECCENTRICITY": 0.002936, "INCLINATION": 74.0196, "RA_OF_ASC_NODE": 234.4485, "ARG_OF_PERICENTER": 346.2019, "MEAN_ANOMALY": 131.9176, "EPHEMERIS_TYPE": 0, "CLASSIFICATION_TYPE": "U", "NORAD_CAT_ID": 39591, "ELEMENT_SET_NO": 999, "REV_AT_EPOCH": 61872, "BSTAR": 0.0001972, "MEAN_MOTION_DOT": 6.21e-06, "MEAN_MOTION_DDOT": 0}, "tle": {"line1": "1 39591U 93036BUW 25353.37878678  .00000621  00000+0  19720-3 0  9990", "line2": "2 39591  74.0196 234.4485 0029360 346.2019 131.9176 14.41824759618728"}}, "geometry": {"type": "Point", "coordinates": [64.04284691924522, -36.41443434026175]}}, {"type": "Feature", "properties": {"norad_id": 40218, "name": "COSMOS 2251 DEB", "group": "cosmos-2251-debris", "lat": 67.28384948006104, "lon": 10.759299335736792, "alt_km": 756.7764562233506, "timestamp": "2025-12-20T18:51:32.111437+00:00", "meta": {"OBJECT_NAME": "COSMOS 2251 DEB", "OBJECT_ID": "1993-036BUX", "EPOCH": "2025-12-14T10:48:31.251744", "MEAN_MOTION": 14.41597705, "ECCENTRICITY": 0.00168728, "INCLINATION": 74.0298, "RA_OF_ASC_NODE": 245.6562, "ARG_OF_PERICENTER": 328.6, "MEAN_ANOMALY": 31.4147, "EPHEMERIS_TYPE": 0, "CLASSIFICATION_TYPE": "U", "NORAD_CAT_ID": 40218, "ELEMENT_SET_NO": 999, "REV_AT_EPOCH": 58886, "BSTAR": 0.00046023204, "MEAN_MOTION_DOT": 1.474e-05, "MEAN_MOTION_DDOT": 0}, "tle": {"line1": "1 40218U 93036BUX 25348.45036171  .00001474  00000+0  46023-3 0  9998", "line2": "2 40218  74.0298 245.6562 0016872 328.6000  31.4147 14.41597705588868"}}, "geometry": {"type": "Point", "coordinates": [10.759299335736792, 67.28384948006104]}}, {"type": "Feature", "properties": {"norad_id": 40223, "name": "COSMOS 2251 DEB", "group": "cosmos-2251-debris", "lat": 72.4018761210626, "lon": 137.43395782470753, "alt_km": 556.2132462613617, "timestamp": "2025-12-20T18:51:32.111448+00:00", "meta": {"OBJECT_NAME": "COSMOS 2251 DEB", "OBJECT_ID": "1993-036BVC", "EPOCH": "2025-12-20T12:10:32.022912", "MEAN_MOTION": 15.04400789, "ECCENTRICITY": 0.00154313, "INCLINATION": 73.937, "RA_OF_ASC_NODE": 72.7196, "ARG_OF_PERICENTER": 279.9109, "MEAN_ANOMALY": 95.2538, "EPHEMERIS_TYPE": 0, "CLASSIFICATION_TYPE": "U", "NORAD_CAT_ID": 40223, "ELEMENT_SET_NO": 999, "REV_AT_EPOCH": 59491, "BSTAR": 0.0026290645, "MEAN_MOTION_DOT": 0.00036973, "MEAN_MOTION_DDOT": 0}, "tle": {"line1": "1 40223U 93036BVC 25354.50731508  .00036973  00000+0  26291-2 0  9999", "line2": "2 40223  73.9370  72.7196 0015431 279.9109  95.2538 15.04400789594913"}}, "geometry": {"type": "Point", "coordinates": [137.43395782470753, 72.4018761210626]}}]}